start=new Date('2023-06-26T00:00:00.000Z').valueOf();
sats=[{"INCLINATION":"53.0540","BSTAR":"0.00011060000000","REV_AT_EPOCH":"13211","OBJECT_NAME":"STARLINK-1997","RCS_SIZE":"LARGE","CLASSIFICATION_TYPE":"U","PERIOD":"95.592","REF_FRAME":"TEME","MEAN_MOTION_DOT":"0.00001367","CENTER_NAME":"EARTH","EPHEMERIS_TYPE":"0","MEAN_MOTION":"15.06405281","SITE":"AFETR","ECCENTRICITY":"0.00008240","COUNTRY_CODE":"US","MEAN_ELEMENT_THEORY":"SGP4","EPOCH":"2023-06-25T03:21:51.180480","APOAPSIS":"547.768","OBJECT_TYPE":"PAYLOAD","TLE_LINE2":"2 47592  53.0540 159.3902 0000824  85.7877 274.3206 15.06405281132115","TIME_SYSTEM":"UTC","SEMIMAJOR_AXIS":"6925.332","FILE":"3941990","OBJECT_ID":"2021-009AW","TLE_LINE1":"1 47592U 21009AW  23176.14017570  .00001367  00000-0  11060-3 0  9991","NORAD_CAT_ID":"47592","GP_ID":"234533477","RA_OF_ASC_NODE":"159.3902","MEAN_MOTION_DDOT":"0.0000000000000","ELEMENT_SET_NO":"999","MEAN_ANOMALY":"274.3206","LAUNCH_DATE":"2021-02-04","ARG_OF_PERICENTER":"85.7877","PERIAPSIS":"546.627","DECAY_DATE":null},{"MEAN_MOTION_DDOT":"0.0000000000000","ELEMENT_SET_NO":"999","RA_OF_ASC_NODE":"157.1384","LAUNCH_DATE":"2021-02-04","ARG_OF_PERICENTER":"79.1536","DECAY_DATE":null,"PERIAPSIS":"546.445","MEAN_ANOMALY":"280.9576","FILE":"3942744","OBJECT_ID":"2021-009AX","TIME_SYSTEM":"UTC","SEMIMAJOR_AXIS":"6925.338","NORAD_CAT_ID":"47593","GP_ID":"234551112","TLE_LINE1":"1 47593U 21009AX  23176.64146652  .00000008  00000-0  19425-4 0  9996","EPHEMERIS_TYPE":"0","MEAN_MOTION":"15.06403422","ECCENTRICITY":"0.00010950","SITE":"AFETR","COUNTRY_CODE":"US","PERIOD":"95.592","MEAN_MOTION_DOT":"0.00000008","REF_FRAME":"TEME","CENTER_NAME":"EARTH","APOAPSIS":"547.961","OBJECT_TYPE":"PAYLOAD","TLE_LINE2":"2 47593  53.0533 157.1384 0001095  79.1536 280.9576 15.06403422132194","MEAN_ELEMENT_THEORY":"SGP4","EPOCH":"2023-06-25T15:23:42.707328","REV_AT_EPOCH":"13219","OBJECT_NAME":"STARLINK-1998","INCLINATION":"53.0533","BSTAR":"0.00001942500000","CLASSIFICATION_TYPE":"U","RCS_SIZE":"LARGE"},{"RA_OF_ASC_NODE":"156.9932","ELEMENT_SET_NO":"999","MEAN_MOTION_DDOT":"0.0000000000000","MEAN_ANOMALY":"271.2907","PERIAPSIS":"546.505","DECAY_DATE":null,"ARG_OF_PERICENTER":"88.8201","LAUNCH_DATE":"2021-02-04","SEMIMAJOR_AXIS":"6925.358","TIME_SYSTEM":"UTC","OBJECT_ID":"2021-009AY","FILE":"3942744","TLE_LINE1":"1 47594U 21009AY  23176.67464141  .00000091  00000-0  25001-4 0  9995","GP_ID":"234551609","NORAD_CAT_ID":"47594","CENTER_NAME":"EARTH","MEAN_MOTION_DOT":"0.00000091","REF_FRAME":"TEME","PERIOD":"95.592","COUNTRY_CODE":"US","SITE":"AFETR","ECCENTRICITY":"0.00010370","MEAN_MOTION":"15.06396840","EPHEMERIS_TYPE":"0","EPOCH":"2023-06-25T16:11:29.017824","MEAN_ELEMENT_THEORY":"SGP4","OBJECT_TYPE":"PAYLOAD","TLE_LINE2":"2 47594  53.0541 156.9932 0001037  88.8201 271.2907 15.06396840132198","APOAPSIS":"547.941","INCLINATION":"53.0541","BSTAR":"0.00002500100000","OBJECT_NAME":"STARLINK-1999","REV_AT_EPOCH":"13219","RCS_SIZE":"LARGE","CLASSIFICATION_TYPE":"U"},{"EPOCH":"2023-06-25T03:05:55.771008","MEAN_ELEMENT_THEORY":"SGP4","TLE_LINE2":"2 47595  53.0545 159.4422 0001375  98.7640 261.3505 15.06408629132112","OBJECT_TYPE":"PAYLOAD","APOAPSIS":"548.139","CENTER_NAME":"EARTH","REF_FRAME":"TEME","MEAN_MOTION_DOT":"0.00000661","PERIOD":"95.592","COUNTRY_CODE":"US","ECCENTRICITY":"0.00013750","SITE":"AFETR","MEAN_MOTION":"15.06408629","EPHEMERIS_TYPE":"0","RCS_SIZE":"LARGE","CLASSIFICATION_TYPE":"U","INCLINATION":"53.0545","BSTAR":"0.00006328400000","OBJECT_NAME":"STARLINK-2000","REV_AT_EPOCH":"13211","MEAN_ANOMALY":"261.3505","PERIAPSIS":"546.235","DECAY_DATE":null,"ARG_OF_PERICENTER":"98.7640","LAUNCH_DATE":"2021-02-04","RA_OF_ASC_NODE":"159.4422","ELEMENT_SET_NO":"999","MEAN_MOTION_DDOT":"0.0000000000000","TLE_LINE1":"1 47595U 21009AZ  23176.12911772  .00000661  00000-0  63284-4 0  9991","GP_ID":"234537786","NORAD_CAT_ID":"47595","SEMIMAJOR_AXIS":"6925.322","TIME_SYSTEM":"UTC","OBJECT_ID":"2021-009AZ","FILE":"3942179"},{"EPHEMERIS_TYPE":"0","MEAN_MOTION":"15.06389690","ECCENTRICITY":"0.00011500","SITE":"AFETR","COUNTRY_CODE":"US","PERIOD":"95.593","MEAN_MOTION_DOT":"-0.00000410","REF_FRAME":"TEME","CENTER_NAME":"EARTH","APOAPSIS":"548.042","OBJECT_TYPE":"PAYLOAD","TLE_LINE2":"2 47596  53.0539 157.0399 0001150  93.0224 267.0896 15.06389690132190","MEAN_ELEMENT_THEORY":"SGP4","EPOCH":"2023-06-25T15:55:34.271040","REV_AT_EPOCH":"13219","OBJECT_NAME":"STARLINK-2001","BSTAR":"-0.00000863490000","INCLINATION":"53.0539","CLASSIFICATION_TYPE":"U","RCS_SIZE":"LARGE","MEAN_MOTION_DDOT":"0.0000000000000","ELEMENT_SET_NO":"999","RA_OF_ASC_NODE":"157.0399","LAUNCH_DATE":"2021-02-04","ARG_OF_PERICENTER":"93.0224","DECAY_DATE":null,"PERIAPSIS":"546.449","MEAN_ANOMALY":"267.0896","FILE":"3942744","OBJECT_ID":"2021-009BA","TIME_SYSTEM":"UTC","SEMIMAJOR_AXIS":"6925.380","NORAD_CAT_ID":"47596","GP_ID":"234551110","TLE_LINE1":"1 47596U 21009BA  23176.66359110 -.00000410  00000-0 -86349-5 0  9995"},{"INCLINATION":"53.0527","BSTAR":"-0.00002228500000","REV_AT_EPOCH":"13219","OBJECT_NAME":"STARLINK-2002","RCS_SIZE":"LARGE","CLASSIFICATION_TYPE":"U","CENTER_NAME":"EARTH","PERIOD":"95.592","REF_FRAME":"TEME","MEAN_MOTION_DOT":"-0.00000613","ECCENTRICITY":"0.00011170","SITE":"AFETR","COUNTRY_CODE":"US","EPHEMERIS_TYPE":"0","MEAN_MOTION":"15.06400249","MEAN_ELEMENT_THEORY":"SGP4","EPOCH":"2023-06-25T15:44:56.264064","TLE_LINE2":"2 47597  53.0527 157.0722 0001117  89.9037 270.2080 15.06400249132192","OBJECT_TYPE":"PAYLOAD","APOAPSIS":"547.986","SEMIMAJOR_AXIS":"6925.348","TIME_SYSTEM":"UTC","OBJECT_ID":"2021-009BB","FILE":"3942744","TLE_LINE1":"1 47597U 21009BB  23176.65620676 -.00000613  00000-0 -22285-4 0  9996","GP_ID":"234551607","NORAD_CAT_ID":"47597","RA_OF_ASC_NODE":"157.0722","ELEMENT_SET_NO":"999","MEAN_MOTION_DDOT":"0.0000000000000","MEAN_ANOMALY":"270.2080","ARG_OF_PERICENTER":"89.9037","DECAY_DATE":null,"PERIAPSIS":"546.439","LAUNCH_DATE":"2021-02-04"},{"LAUNCH_DATE":"2021-02-04","ARG_OF_PERICENTER":"84.1752","DECAY_DATE":null,"PERIAPSIS":"546.140","MEAN_ANOMALY":"275.9413","MEAN_MOTION_DDOT":"0.0000000000000","ELEMENT_SET_NO":"999","RA_OF_ASC_NODE":"127.3266","GP_ID":"234551108","NORAD_CAT_ID":"47598","TLE_LINE1":"1 47598U 21009BC  23176.60000415  .00001840  00000-0  14238-3 0  9994","FILE":"3942744","OBJECT_ID":"2021-009BC","TIME_SYSTEM":"UTC","SEMIMAJOR_AXIS":"6925.345","APOAPSIS":"548.280","TLE_LINE2":"2 47598  53.0531 127.3266 0001545  84.1752 275.9413 15.06401086132627","OBJECT_TYPE":"PAYLOAD","MEAN_ELEMENT_THEORY":"SGP4","EPOCH":"2023-06-25T14:24:00.358560","EPHEMERIS_TYPE":"0","MEAN_MOTION":"15.06401086","SITE":"AFETR","ECCENTRICITY":"0.00015450","COUNTRY_CODE":"US","PERIOD":"95.592","REF_FRAME":"TEME","MEAN_MOTION_DOT":"0.00001840","CENTER_NAME":"EARTH","CLASSIFICATION_TYPE":"U","RCS_SIZE":"LARGE","REV_AT_EPOCH":"13262","OBJECT_NAME":"STARLINK-2003","BSTAR":"0.00014238000000","INCLINATION":"53.0531"},{"TIME_SYSTEM":"UTC","SEMIMAJOR_AXIS":"6925.236","FILE":"3942170","OBJECT_ID":"2021-009BD","TLE_LINE1":"1 47599U 21009BD  23176.12543332  .00021011  00000-0  14238-2 0  9993","GP_ID":"234537802","NORAD_CAT_ID":"47599","RA_OF_ASC_NODE":"119.4582","MEAN_MOTION_DDOT":"0.0000000000000","ELEMENT_SET_NO":"999","MEAN_ANOMALY":"261.4500","LAUNCH_DATE":"2021-02-04","ARG_OF_PERICENTER":"98.6652","PERIAPSIS":"546.107","DECAY_DATE":null,"BSTAR":"0.00142380000000","INCLINATION":"53.0540","REV_AT_EPOCH":"13268","OBJECT_NAME":"STARLINK-2004","RCS_SIZE":"LARGE","CLASSIFICATION_TYPE":"U","PERIOD":"95.590","MEAN_MOTION_DOT":"0.00021011","REF_FRAME":"TEME","CENTER_NAME":"EARTH","EPHEMERIS_TYPE":"0","MEAN_MOTION":"15.06436599","SITE":"AFETR","ECCENTRICITY":"0.00014360","COUNTRY_CODE":"US","MEAN_ELEMENT_THEORY":"SGP4","EPOCH":"2023-06-25T03:00:37.438848","APOAPSIS":"548.096","TLE_LINE2":"2 47599  53.0540 119.4582 0001436  98.6652 261.4500 15.06436599132689","OBJECT_TYPE":"PAYLOAD"},{"EPOCH":"2023-06-25T14:46:33.656448","MEAN_ELEMENT_THEORY":"SGP4","APOAPSIS":"547.997","TLE_LINE2":"2 47600  53.0521 117.2256 0001193 112.0514 248.0602 15.06413876132769","OBJECT_TYPE":"PAYLOAD","REF_FRAME":"TEME","MEAN_MOTION_DOT":"0.00007857","PERIOD":"95.591","CENTER_NAME":"EARTH","MEAN_MOTION":"15.06413876","EPHEMERIS_TYPE":"0","COUNTRY_CODE":"US","ECCENTRICITY":"0.00011930","SITE":"AFETR","RCS_SIZE":"LARGE","CLASSIFICATION_TYPE":"U","INCLINATION":"53.0521","BSTAR":"0.00054559000000","OBJECT_NAME":"STARLINK-2005","REV_AT_EPOCH":"13276","MEAN_ANOMALY":"248.0602","LAUNCH_DATE":"2021-02-04","PERIAPSIS":"546.345","DECAY_DATE":null,"ARG_OF_PERICENTER":"112.0514","RA_OF_ASC_NODE":"117.2256","MEAN_MOTION_DDOT":"0.0000000000000","ELEMENT_SET_NO":"999","TLE_LINE1":"1 47600U 21009BE  23176.61566732  .00007857  00000-0  54559-3 0  9992","GP_ID":"234551107","NORAD_CAT_ID":"47600","TIME_SYSTEM":"UTC","SEMIMAJOR_AXIS":"6925.306","FILE":"3942744","OBJECT_ID":"2021-009BE"},{"MEAN_ANOMALY":"281.2246","LAUNCH_DATE":"2021-02-04","ARG_OF_PERICENTER":"78.9032","PERIAPSIS":"545.408","DECAY_DATE":null,"RA_OF_ASC_NODE":"117.6520","MEAN_MOTION_DDOT":"0.0000000000000","ELEMENT_SET_NO":"999","TLE_LINE1":"1 47601U 21009BF  23176.52720687  .00006334  00000-0  44367-3 0  9999","GP_ID":"234551106","NORAD_CAT_ID":"47601","TIME_SYSTEM":"UTC","SEMIMAJOR_AXIS":"6925.325","FILE":"3942744","OBJECT_ID":"2021-009BF","MEAN_ELEMENT_THEORY":"SGP4","EPOCH":"2023-06-25T12:39:10.673568","APOAPSIS":"548.972","OBJECT_TYPE":"PAYLOAD","TLE_LINE2":"2 47601  53.0535 117.6520 0002573  78.9032 281.2246 15.06407667132743","PERIOD":"95.592","REF_FRAME":"TEME","MEAN_MOTION_DOT":"0.00006334","CENTER_NAME":"EARTH","EPHEMERIS_TYPE":"0","MEAN_MOTION":"15.06407667","ECCENTRICITY":"0.00025730","SITE":"AFETR","COUNTRY_CODE":"US","RCS_SIZE":"LARGE","CLASSIFICATION_TYPE":"U","INCLINATION":"53.0535","BSTAR":"0.00044367000000","REV_AT_EPOCH":"13274","OBJECT_NAME":"STARLINK-2006"}];
